{"type": "FeatureCollection", "features": [ {"type": "Feature", "properties": {"norad_id": 47052, "name": "COSMOS 2251 DEB", "group": "cosmos-2251-debris", "lat": -16.105065388781032, "lon": -48.012886587371646, "alt_km": 747.657553593508, "timestamp": "2025-12-25T14:48:25.170403+00:00", "meta": {"OBJECT_NAME": "COSMOS 2251 DEB", "OBJECT_ID": "1993-036BXG", "EPOCH": "2025-12-24T16:17:22.199424", "MEAN_MOTION": 14.35501409, "ECCENTRICITY": 0.00585143, "INCLINATION": 74.0496, "RA_OF_ASC_NODE": 318.4427, "ARG_OF_PERICENTER": 29.3671, "MEAN_ANOMALY": 147.8065, "EPHEMERIS_TYPE": 0, "CLASSIFICATION_TYPE": "U", "NORAD_CAT_ID": 47052, "ELEMENT_SET_NO": 999, "REV_AT_EPOCH": 61960, "BSTAR": 0.00031599751, "MEAN_MOTION_DOT": 9.01e-06, "MEAN_MOTION_DDOT": 0}, "tle": {"line1": "1 47052U 93036BXG 25358.67872916  .00000901  00000+0  31600-3 0  9990", "line2": "2 47052  74.0496 318.4427 0058514  29.3671 147.8065 14.35501409619605"}}, "geometry": {"type": "Point", "coordinates": [-48.012886587371646, -16.105065388781032]}}, {"type": "Feature", "properties": {"norad_id": 47053, "name": "COSMOS 2251 DEB", "group": "cosmos-2251-debris", "lat": -25.217577057397847, "lon": 60.95478566161357, "alt_km": 1307.624898135572, "timestamp": "2025-12-25T14:48:25.170411+00:00", "meta": {"OBJECT_NAME": "COSMOS 2251 DEB", "OBJECT_ID": "1993-036BXH", "EPOCH": "2025-12-21T23:22:14.227392", "MEAN_MOTION": 13.59701409, "ECCENTRICITY": 0.03775476, "INCLINATION": 74.0593, "RA_OF_ASC_NODE": 239.1144, "ARG_OF_PERICENTER": 50.5889, "MEAN_ANOMALY": 327.7768, "EPHEMERIS_TYPE": 0, "CLASSIFICATION_TYPE": "U", "NORAD_CAT_ID": 47053, "ELEMENT_SET_NO": 999, "REV_AT_EPOCH": 29014, "BSTAR": 0.0013674764, "MEAN_MOTION_DOT": 1.606e-05, "MEAN_MOTION_DDOT": 0}, "tle": {"line1": "1 47053U 93036BXH 25355.97377578  .00001606  00000+0  13675-2 0  9999", "line2": "2 47053  74.0593 239.1144 0377547  50.5889 327.7768 13.59701409290146"}}, "geometry": {"type": "Point", "coordinates": [60.95478566161357, -25.217577057397847]}}, {"type": "Feature", "properties": {"norad_id": 47059, "name": "COSMOS 2251 DEB", "group": "cosmos-2251-debris", "lat": -22.934647261546917, "lon": -158.36227254096497, "alt_km": 523.3378866667963, "timestamp": "2025-12-25T14:48:25.170420+00:00", "meta": {"OBJECT_NAME": "COSMOS 2251 DEB", "OBJECT_ID": "1993-036BXP", "EPOCH": "2025-12-16T01:10:48.054720", "MEAN_MOTION": 15.13144812, "ECCENTRICITY": 0.00128667, "INCLINATION": 73.98, "RA_OF_ASC_NODE": 228.534, "ARG_OF_PERICENTER": 42.2566, "MEAN_ANOMALY": 26.5019, "EPHEMERIS_TYPE": 0, "CLASSIFICATION_TYPE": "U", "NORAD_CAT_ID": 47059, "ELEMENT_SET_NO": 999, "REV_AT_EPOCH": 8355, "BSTAR": 0.0018804977, "MEAN_MOTION_DOT": 0.00033522, "MEAN_MOTION_DDOT": 0}, "tle": {"line1": "1 47059U 93036BXP 25350.04916730  .00033522  00000+0  18805-2 0  9999", "line2": "2 47059  73.9800 228.5340 0012866  42.2566  26.5019 15.13144812 83550"}}, "geometry": {"type": "Point", "coordinates": [-158.36227254096497, -22.934647261546917]}}, {"type": "Feature", "properties": {"norad_id": 47062, "name": "COSMOS 2251 DEB", "group": "cosmos-2251-debris", "lat": -48.53620858344432, "lon": 38.10062197071784, "alt_km": 1143.2878515549382, "timestamp": "2025-12-25T14:48:25.170429+00:00", "meta": {"OBJECT_NAME": "COSMOS 2251 DEB", "OBJECT_ID": "1993-036BXS", "EPOCH": "2025-12-23T10:39:12.732768", "MEAN_MOTION": 13.71972492, "ECCENTRICITY": 0.03225336, "INCLINATION": 74.0838, "RA_OF_ASC_NODE": 60.5229, "ARG_OF_PERICENTER": 184.1282, "MEAN_ANOMALY": 192.9276, "EPHEMERIS_TYPE": 0, "CLASSIFICATION_TYPE": "U", "NORAD_CAT_ID": 47062, "ELEMENT_SET_NO": 999, "REV_AT_EPOCH": 55749, "BSTAR": 0.00088691048, "MEAN_MOTION_DOT": 1.145e-05, "MEAN_MOTION_DDOT": 0}, "tle": {"line1": "1 47062U 93036BXS 25357.44389737  .00001145  00000+0  88691-3 0  9992", "line2": "2 47062  74.0838  60.5229 0322533 184.1282 192.9276 13.71972492557490"}}, "geometry": {"type": "Point", "coordinates": [38.10062197071784, -48.53620858344432]}}, {"type": "Feature", "properties": {"norad_id": 47068, "name": "COSMOS 2251 DEB", "group": "cosmos-2251-debris", "lat": -44.80727124503226, "lon": 15.6813004453858, "alt_km": 711.2659230081108, "timestamp": "2025-12-25T14:48:25.170438+00:00", "meta": {"OBJECT_NAME": "COSMOS 2251 DEB", "OBJECT_ID": "1993-036BXY", "EPOCH": "2025-12-23T18:48:26.675712", "MEAN_MOTION": 14.5321924, "ECCENTRICITY": 0.00182523, "INCLINATION": 74.0229, "RA_OF_ASC_NODE": 182.6094, "ARG_OF_PERICENTER": 268.9678, "MEAN_ANOMALY": 90.9393, "EPHEMERIS_TYPE": 0, "CLASSIFICATION_TYPE": "U", "NORAD_CAT_ID": 47068, "ELEMENT_SET_NO": 999, "REV_AT_EPOCH": 61917, "BSTAR": 0.00081306022, "MEAN_MOTION_DOT": 3.351e-05, "MEAN_MOTION_DDOT": 0}, "tle": {"line1": "1 47068U 93036BXY 25357.78364208  .00003351  00000+0  81306-3 0  9998", "line2": "2 47068  74.0229 182.6094 0018252 268.9678  90.9393 14.53219240619173"}}, "geometry": {"type": "Point", "coordinates": [15.6813004453858, -44.80727124503226]}}, {"type": "Feature", "properties": {"norad_id": 47073, "name": "COSMOS 2251 DEB", "group": "cosmos-2251-debris", "lat": -48.62566537469353, "lon": 160.53405785839607, "alt_km": 890.4957626929136, "timestamp": "2025-12-25T14:48:25.170447+00:00", "meta": {"OBJECT_NAME": "COSMOS 2251 DEB", "OBJECT_ID": "1993-036BYD", "EPOCH": "2025-12-20T05:09:22.277088", "MEAN_MOTION": 14.04735867, "ECCENTRICITY": 0.0161533, "INCLINATION": 74.0811, "RA_OF_ASC_NODE": 188.8357, "ARG_OF_PERICENTER": 225.3344, "MEAN_ANOMALY": 133.4535, "EPHEMERIS_TYPE": 0, "CLASSIFICATION_TYPE": "U", "NORAD_CAT_ID": 47073, "ELEMENT_SET_NO": 999, "REV_AT_EPOCH": 60466, "BSTAR": 0.00045488, "MEAN_MOTION_DOT": 7.94e-06, "MEAN_MOTION_DDOT": 0}, "tle": {"line1": "1 47073U 93036BYD 25354.21484117  .00000794  00000+0  45488-3 0  9990", "line2": "2 47073  74.0811 188.8357 0161533 225.3344 133.4535 14.04735867604667"}}, "geometry": {"type": "Point", "coordinates": [160.53405785839607, -48.62566537469353]}}, {"type": "Feature", "properties": {"norad_id": 47074, "name": "COSMOS 2251 DEB", "group": "cosmos-2251-debris", "lat": 73.83042637216406, "lon": 25.584588439221875, "alt_km": 846.9817463818636, "timestamp": "2025-12-25T14:48:25.170474+00:00", "meta": {"OBJECT_NAME": "COSMOS 2251 DEB", "OBJECT_ID": "1993-036BYE", "EPOCH": "2025-12-24T01:39:06.472224", "MEAN_MOTION": 14.35696552, "ECCENTRICITY": 0.01448361, "INCLINATION": 74.0936, "RA_OF_ASC_NODE": 287.9879, "ARG_OF_PERICENTER": 313.5556, "MEAN_ANOMALY": 59.972, "EPHEMERIS_TYPE": 0, "CLASSIFICATION_TYPE": "U", "NORAD_CAT_ID": 47074, "ELEMENT_SET_NO": 999, "REV_AT_EPOCH": 2845, "BSTAR": 0.0011703787, "MEAN_MOTION_DOT": 3.781e-05, "MEAN_MOTION_DDOT": 0}, "tle": {"line1": "1 47074U 93036BYE 25358.06882491  .00003781  00000+0  11704-2 0  9997", "line2": "2 47074  74.0936 287.9879 0144836 313.5556  59.9720 14.35696552 28454"}}, "geometry": {"type": "Point", "coordinates": [25.584588439221875, 73.83042637216406]}}, {"type": "Feature", "properties": {"norad_id": 47116, "name": "COSMOS 2251 DEB", "group": "cosmos-2251-debris", "lat": -29.933356095910177, "lon": -154.90645326287859, "alt_km": 562.7093397498957, "timestamp": "2025-12-25T14:48:25.170483+00:00", "meta": {"OBJECT_NAME": "COSMOS 2251 DEB", "OBJECT_ID": "1993-036BYJ", "EPOCH": "2025-12-22T09:13:54.172992", "MEAN_MOTION": 14.98590739, "ECCENTRICITY": 0.00212329, "INCLINATION": 74.0216, "RA_OF_ASC_NODE": 221.1484, "ARG_OF_PERICENTER": 314.2258, "MEAN_ANOMALY": 222.9412, "EPHEMERIS_TYPE": 0, "CLASSIFICATION_TYPE": "U", "NORAD_CAT_ID": 47116, "ELEMENT_SET_NO": 999, "REV_AT_EPOCH": 59655, "BSTAR": 0.0021038728, "MEAN_MOTION_DOT": 0.000254, "MEAN_MOTION_DDOT": 0}, "tle": {"line1": "1 47116U 93036BYJ 25356.38465478  .00025400  00000+0  21039-2 0  9993", "line2": "2 47116  74.0216 221.1484 0021232 314.2258 222.9412 14.98590739596555"}}, "geometry": {"type": "Point", "coordinates": [-154.90645326287859, -29.933356095910177]}}, {"type": "Feature", "properties": {"norad_id": 53093, "name": "COSMOS 2251 DEB", "group": "cosmos-2251-debris", "lat": 50.59745109111966, "lon": -62.01995884519307, "alt_km": 740.1478999660803, "timestamp": "2025-12-25T14:48:25.170492+00:00", "meta": {"OBJECT_NAME": "COSMOS 2251 DEB", "OBJECT_ID": "1993-036BYP", "EPOCH": "2025-12-25T04:34:12.384768", "MEAN_MOTION": 14.41946872, "ECCENTRICITY": 0.00199065, "INCLINATION": 74.0363, "RA_OF_ASC_NODE": 278.3778, "ARG_OF_PERICENTER": 353.4951, "MEAN_ANOMALY": 6.5943, "EPHEMERIS_TYPE": 0, "CLASSIFICATION_TYPE": "U", "NORAD_CAT_ID": 53093, "ELEMENT_SET_NO": 999, "REV_AT_EPOCH": 17905, "BSTAR": 0.00091161267, "MEAN_MOTION_DOT": 2.969e-05, "MEAN_MOTION_DDOT": 0}, "tle": {"line1": "1 53093U 93036BYP 25359.19042112  .00002969  00000+0  91161-3 0  9991", "line2": "2 53093  74.0363 278.3778 0019906 353.4951   6.5943 14.41946872179057"}}, "geometry": {"type": "Point", "coordinates": [-62.01995884519307, 50.59745109111966]}}]}